GLOBALSTAR M067         
1 32263U 07048A   26025.71074490 -.00000069  00000+0  21126-3 0  9992
2 32263  51.9728 104.8016 0001787 108.3849  63.4454 12.40684242837104
GLOBALSTAR M070         
1 32264U 07048B   26025.80930647 -.00000074  00000+0  16407-3 0  9990
2 32264  51.9735 170.2978 0000760 101.4671  45.7559 12.62329797841787
GLOBALSTAR M066         
1 32265U 07048C   26025.60590183 -.00000093  00000+0  94491-5 0  9998
2 32265  51.9593 107.2231 0005524 107.5730  39.6713 12.30385121842679
GLOBALSTAR M068         
1 32266U 07048D   26025.86754616 -.00000060  00000+0  24582-3 0  9996
2 32266  51.9909 343.4435 0000684 284.9504 101.3028 12.62838813845699
GLOBALSTAR M079         
1 37188U 10054A   26026.18318359 -.00000078  00000+0  14318-3 0  9996
2 37188  52.0019 180.9505 0001195  87.6031  83.3376 12.62270204704619
GLOBALSTAR M074         
1 37189U 10054B   26025.89161086 -.00000085  00000+0  10219-3 0  9991
2 37189  51.9994 181.1266 0001137 104.1832  60.3504 12.62265667705185
GLOBALSTAR M076         
1 37190U 10054C   26025.83523817 -.00000075  00000+0  15822-3 0  9995
2 37190  52.0009 181.4898 0001287  98.7747  48.9404 12.62269975704893
GLOBALSTAR M077         
1 37191U 10054D   26026.15672335 -.00000041  00000+0  67584-3 0  9997
2 37191  51.9947 180.0221 0001651  97.6812  73.3551 11.68178142704541
